CUTE-1 (CO-55)          
1 27844U 03031E   26193.81805928  .00000160  00000+0  88191-4 0  9991
2 27844  98.6742 202.0549 0010788 108.7901 251.4449 14.24350634195326
CUBESAT XI-IV (CO-57)   
1 27848U 03031J   26193.53826736  .00000128  00000+0  75348-4 0  9998
2 27848  98.6772 201.4707 0010448 126.3839 233.8305 14.23633637194983
CUBESAT XI-V            
1 28895U 05043F   26192.38715503  .00000804  00000+0  13420-3 0  9990
2 28895  98.3011 348.5214 0015131 126.3821 233.8784 14.72696464105311
CUTE-1.7+APD II (CO-65) 
1 32785U 08021C   26193.90119955  .00003342  00000+0  21157-3 0  9996
2 32785  97.8287 175.8607 0007239 308.7828  51.2753 15.09687806989075
CANX-2                  
1 32790U 08021H   26193.87350918  .00002103  00000+0  14952-3 0  9993
2 32790  97.8655 174.1555 0008944 326.9211  33.1455 15.05798438988679
SEEDS II (CO-66)        
1 32791U 08021J   26193.52388480  .00011335  00000+0  35129-3 0  9997
2 32791  97.7520 192.6480 0002793 162.8059 197.3278 15.33607267991170
SWISSCUBE               
1 35932U 09051B   26193.20904170  .00000502  00000+0  10865-3 0  9990
2 35932  98.4012 101.5313 0007715 127.0520 233.1388 14.62527427892815
BEESAT-1                
1 35933U 09051C   26193.71071439  .00000393  00000+0  88659-4 0  9995
2 35933  98.3939 101.6234 0005984 136.3628 223.8047 14.61759519892911
ITUPSAT1                
1 35935U 09051E   26192.97035851  .00000388  00000+0  90106-4 0  9996
2 35935  98.4023 100.0372 0007861 152.4089 207.7529 14.60475983892353
TISAT 1                 
1 36799U 10035E   26193.78288002  .00014733  00000+0  46922-3 0  9992
2 36799  98.0706 142.6231 0004317 124.7217 235.4430 15.32674274871620
STRAND-1                
1 39090U 13009E   26193.46783720  .00000149  00000+0  64299-4 0  9999
2 39090  98.3932  13.0813 0009262 148.5894 211.5848 14.37177891700690
BRITE-AUSTRIA           
1 39091U 13009F   26193.49167969  .00000086  00000+0  43656-4 0  9998
2 39091  98.4006  12.3025 0010611 158.3879 201.7757 14.36551807700684
NEE-01 PEGASO           
1 39151U 13018B   26193.85495951  .00001049  00000+0  10464-3 0  9990
2 39151  98.1249 338.8594 0013690  81.1402 279.1367 14.93783456714534
POPACS 2                
1 39269U 13055E   26193.19994430  .00013503 -90886-6  22033-3 0  9996
2 39269  80.9921 115.5530 0415176 113.4876 251.0542 14.91934936666943
POPACS 3                
1 39270U 13055F   26193.47007032  .00008784  00000+0  20828-3 0  9998
2 39270  80.9985 201.7622 0549132 352.9872   6.3847 14.56613622642233
ZACUBE-1 (TSHEPISOSAT)  
1 39417U 13066B   26193.80190617  .00001290  00000+0  10312-3 0  9994
2 39417  97.8010 156.2656 0043887 162.8946 197.3769 15.01322390684576
WNISAT-1                
1 39423U 13066H   26193.39659923  .00000690  00000+0  13332-3 0  9993
2 39423  97.7230 340.7674 0163707 152.0843 208.9262 14.58116222670407
TRITON-1                
1 39427U 13066M   26193.82188586  .00000737  00000+0  93684-4 0  9998
2 39427  97.8227 103.0438 0090385 149.7768 210.8703 14.81789015677889
GOMX-1                  
1 39430U 13066Q   26193.78811551  .00000865  00000+0  13621-3 0  9996
2 39430  97.6477  32.6355 0128492 355.9571   4.0586 14.69539412673672
CUBEBUG-2 (LO-74)       
1 39440U 13066AA  26193.85098882  .00001863  00000+0  17551-3 0  9994
2 39440  97.8909 142.9428 0055957 303.3134  56.2734 14.93957370680821
NEE-02 KRYSAOR          
1 39441U 13066AB  26193.78506804  .00001365  00000+0  15406-3 0  9999
2 39441  97.8894 132.8197 0065625 347.2366  12.7185 14.86733490680007
FUNCUBE-1 (AO-73)       
1 39444U 13066AE  26192.91261323  .00003917  00000+0  24262-3 0  9995
2 39444  97.8287 164.8814 0037972 118.2418 242.2652 15.09793381683390
UWE-3                   
1 39446U 13066AG  26193.81399014  .00001937  00000+0  16916-3 0  9993
2 39446  97.8701 150.0656 0047510 232.8178 126.8701 14.97190018681416
BRITE-CA1 (TORONTO)     
1 40020U 14033L   26192.83734130  .00000569  00000+0  93137-4 0  9992
2 40020  97.9767 321.3152 0078193 197.0405 162.8175 14.72718584645848
DUCHIFAT-1              
1 40021U 14033M   26193.68571963  .00110396  00000+0  89146-3 0  9994
2 40021  98.0440 256.5455 0002165 257.9613 102.1405 15.70510170659744
NANOSATC-BR1            
1 40024U 14033Q   26193.55007700  .00010975  00000+0  35481-3 0  9991
2 40024  98.0714 228.1994 0005323 102.2683 257.9153 15.32271898657861
QB50P1                  
1 40025U 14033R   26193.52077436  .00005256  00000+0  25721-3 0  9994
2 40025  98.0964 206.4495 0010219 132.7489 227.4606 15.18640557656877
QB50P2                  
1 40032U 14033Y   26193.45711523  .00004004  00000+0  21528-3 0  9997
2 40032  98.0759 191.9172 0009355  91.3787 268.8515 15.15485152656498
PERSEUS-M2              
1 40037U 14033AD  26193.82207693  .00001570  00000+0  14689-3 0  9996
2 40037  97.9968 144.8865 0010709 207.0473 153.0190 14.95586940654612
PERSEUS-M1              
1 40039U 14033AF  26193.79298550  .00001273  00000+0  11974-3 0  9990
2 40039  97.9651 138.3475 0010778 204.8282 155.2421 14.95709687654466
